{"spkid": "50591907", "covariance": {"labels": ["e", "q", "tp", "node", "peri", "i"], "data": [["1.67119192694318E-12", "-2.091704774951611E-12", "-4.521536799727731E-10", "1.459494305277074E-10", "-5.730486780556281E-10", "2.551249898227141E-11"], ["-2.091704774951611E-12", "2.618226194597317E-12", "5.676331379814521E-10", "-1.819350646472826E-10", "7.175902617028409E-10", "-3.202768716181378E-11"], ["-4.521536799727731E-10", "5.676331379814521E-10", "1.380654083946328E-7", "-3.236821298160788E-8", "1.580286388205267E-7", "-7.79342058543983E-9"], ["1.459494305277074E-10", "-1.819350646472826E-10", "-3.236821298160788E-8", "2.554546728099599E-8", "-5.817686847381777E-8", "1.782145516726559E-9"], ["-5.730486780556281E-10", "7.175902617028409E-10", "1.580286388205267E-7", "-5.817686847381777E-8", "2.064752188328241E-7", "-8.874929073112867E-9"], ["2.551249898227141E-11", "-3.202768716181378E-11", "-7.79342058543983E-9", "1.782145516726559E-9", "-8.874929073112867E-9", "4.634269957267504E-10"]], "elements": [{"name": "e", "sigma": 1.29274588645378e-06, "units": null, "value": ".1938450654104429", "title": "eccentricity", "label": "e"}, {"sigma": 1.61809338253307e-06, "name": "q", "value": ".9664531292776318", "title": "perihelion distance", "units": "au", "label": "q"}, {"label": "tp", "units": "TDB", "value": "2457287.646624723776", "title": "time of perihelion passage", "sigma": 0.000371571538730609, "name": "tp"}, {"units": "deg", "title": "longitude of the ascending node", "value": "34.82805314797034", "sigma": 0.000159829494402616, "name": "om", "label": "node"}, {"label": "peri", "name": "w", "sigma": 0.000454395443235101, "units": "deg", "value": "344.3693879249545", "title": "argument of perihelion"}, {"label": "i", "name": "i", "sigma": 2.15273545919314e-05, "title": "inclination", "value": "6.145308522003131", "units": "deg"}], "epoch": "2457336.5"}, "elements": [{"label": "e", "name": "e", "sigma": "1.2945E-6", "units": null, "title": "eccentricity", "value": ".193724368931217"}, {"title": "semi-major axis", "value": "1.198759916151785", "units": "au", "name": "a", "sigma": "8.2633E-8", "label": "a"}, {"name": "q", "sigma": "1.6171E-6", "title": "perihelion distance", "value": ".966530907895242", "units": "au", "label": "q"}, {"units": "deg", "title": "inclination; angle with respect to x-y ecliptic plane", "value": "6.144389988647602", "name": "i", "sigma": "2.1534E-5", "label": "i"}, {"name": "om", "sigma": ".0001599", "units": "deg", "title": "longitude of the ascending node", "value": "34.78850552033731", "label": "node"}, {"units": "deg", "value": "344.4280486576645", "title": "argument of perihelion", "sigma": ".00045405", "name": "w", "label": "peri"}, {"units": "deg", "title": "mean anomaly", "value": "58.29773803490158", "name": "ma", "sigma": ".00058872", "label": "M"}, {"units": "TDB", "value": "2461122.867075005585", "title": "time of perihelion passage", "sigma": ".00077597", "name": "tp", "label": "tp"}, {"label": "period", "units": "d", "value": "479.3985828619576", "title": "sidereal orbital period", "name": "per", "sigma": "4.9569E-5"}, {"label": "n", "units": "deg/d", "title": "mean motion", "value": ".7509408931725226", "name": "n", "sigma": "7.7645E-8"}, {"label": "Q", "name": "ad", "sigma": "9.864E-8", "units": "au", "value": "1.430988924408328", "title": "aphelion distance"}], "epoch": "2461200.5"}